{
  "norad_id": 45462,
  "name": "YAOGAN-30 07C",
  "history": [
    {
      "epoch": "2026-03-28T17:15:50.093856",
      "apogee_km": 560.315519405438,
      "perigee_km": 559.2970293327598,
      "latitude_deg": 8.188845761890102,
      "longitude_deg": -124.74434015993029,
      "semi_major_axis_km": 6937.943274369099,
      "eccentricity": 7.34e-05,
      "inclination_deg": 34.9967,
      "raan_deg": 338.856,
      "arg_perigee_deg": 357.6078,
      "mean_anomaly_deg": 2.4627,
      "mean_motion_rev_day": 15.02299923
    }
  ]
}